{
  "type": "FeatureCollection",
  "features": [
    {
      "type": "Feature",
      "properties": {
        "norad_id": 41330,
        "name": "COSMOS 2514 (751)",
        "group": "gnss",
        "lat": 55.06571590017072,
        "lon": 1.0764346103002538,
        "alt_km": 19152.027171886984,
        "timestamp": "2025-12-09T18:55:17.475258+00:00",
        "meta_object_name": "COSMOS 2514 (751)",
        "meta_object_id": "2016-008A",
        "meta_epoch": "2025-12-09T05:37:58.803168",
        "meta_mean_motion": 2.13102552,
        "meta_eccentricity": 0.00122306,
        "meta_inclination": 65.1358,
        "meta_ra_of_asc_node": 319.524,
        "meta_arg_of_pericenter": 220.0477,
        "meta_mean_anomaly": 139.8584,
        "meta_ephemeris_type": 0,
        "meta_classification_type": "U",
        "meta_norad_cat_id": 41330,
        "meta_element_set_no": 999,
        "meta_rev_at_epoch": 7657,
        "meta_bstar": 0,
        "meta_mean_motion_dot": -4.9e-07,
        "meta_mean_motion_ddot": 0,
        "tle_line1": "1 41330U 16008A   25343.23470837 -.00000049  00000+0  00000+0 0  9999",
        "tle_line2": "2 41330  65.1358 319.5240 0012230 220.0477 139.8584  2.13102552 76579"
      },
      "geometry": {
        "type": "Point",
        "coordinates": [
          1.0764346103002538,
          55.06571590017072
        ]
      }
    },
    {
      "type": "Feature",
      "properties": {
        "norad_id": 41384,
        "name": "IRNSS-1F",
        "group": "gnss",
        "lat": -4.442051479616988,
        "lon": 35.273526181053825,
        "alt_km": 35824.98281113032,
        "timestamp": "2025-12-09T18:55:17.475270+00:00",
        "meta_object_name": "IRNSS-1F",
        "meta_object_id": "2016-015A",
        "meta_epoch": "2025-12-09T13:43:36.797088",
        "meta_mean_motion": 1.00270842,
        "meta_eccentricity": 0.00224939,
        "meta_inclination": 4.8725,
        "meta_ra_of_asc_node": 101.3785,
        "meta_arg_of_pericenter": 180.267,
        "meta_mean_anomaly": 35.1791,
        "meta_ephemeris_type": 0,
        "meta_classification_type": "U",
        "meta_norad_cat_id": 41384,
        "meta_element_set_no": 999,
        "meta_rev_at_epoch": 3576,
        "meta_bstar": 0,
        "meta_mean_motion_dot": 1.6e-06,
        "meta_mean_motion_ddot": 0,
        "tle_line1": "1 41384U 16015A   25343.57195367  .00000160  00000+0  00000+0 0  9998",
        "tle_line2": "2 41384   4.8725 101.3785 0022493 180.2670  35.1791  1.00270842 35768"
      },
      "geometry": {
        "type": "Point",
        "coordinates": [
          35.273526181053825,
          -4.442051479616988
        ]
      }
    },
    {
      "type": "Feature",
      "properties": {
        "norad_id": 41434,
        "name": "BEIDOU-2 IGSO-6 (C13)",
        "group": "gnss",
        "lat": 45.39199208214099,
        "lon": 75.82825196741847,
        "alt_km": 36026.11111596134,
        "timestamp": "2025-12-09T18:55:17.475284+00:00",
        "meta_object_name": "BEIDOU-2 IGSO-6 (C13)",
        "meta_object_id": "2016-021A",
        "meta_epoch": "2025-12-03T15:53:57.382080",
        "meta_mean_motion": 1.00293531,
        "meta_eccentricity": 0.00596341,
        "meta_inclination": 59.9536,
        "meta_ra_of_asc_node": 39.991,
        "meta_arg_of_pericenter": 228.541,
        "meta_mean_anomaly": 135.1173,
        "meta_ephemeris_type": 0,
        "meta_classification_type": "U",
        "meta_norad_cat_id": 41434,
        "meta_element_set_no": 999,
        "meta_rev_at_epoch": 3552,
        "meta_bstar": 0,
        "meta_mean_motion_dot": -1.61e-06,
        "meta_mean_motion_ddot": 0,
        "tle_line1": "1 41434U 16021A   25337.66246970 -.00000161  00000+0  00000+0 0  9993",
        "tle_line2": "2 41434  59.9536  39.9910 0059634 228.5410 135.1173  1.00293531 35525"
      },
      "geometry": {
        "type": "Point",
        "coordinates": [
          75.82825196741847,
          45.39199208214099
        ]
      }
    },
    {
      "type": "Feature",
      "properties": {
        "norad_id": 41469,
        "name": "IRNSS-1G",
        "group": "gnss",
        "lat": 2.3518402878491735,
        "lon": 131.76876355786234,
        "alt_km": 35780.113136270986,
        "timestamp": "2025-12-09T18:55:17.475312+00:00",
        "meta_object_name": "IRNSS-1G",
        "meta_object_id": "2016-027A",
        "meta_epoch": "2025-12-09T10:57:51.668064",
        "meta_mean_motion": 1.00250945,
        "meta_eccentricity": 0.00046366,
        "meta_inclination": 4.7249,
        "meta_ra_of_asc_node": 102.1843,
        "meta_arg_of_pericenter": 335.7018,
        "meta_mean_anomaly": 294.2623,
        "meta_ephemeris_type": 0,
        "meta_classification_type": "U",
        "meta_norad_cat_id": 41469,
        "meta_element_set_no": 999,
        "meta_rev_at_epoch": 3527,
        "meta_bstar": 0,
        "meta_mean_motion_dot": -3.35e-06,
        "meta_mean_motion_ddot": 0,
        "tle_line1": "1 41469U 16027A   25343.45684801 -.00000335  00000+0  00000+0 0  9993",
        "tle_line2": "2 41469   4.7249 102.1843 0004636 335.7018 294.2623  1.00250945 35278"
      },
      "geometry": {
        "type": "Point",
        "coordinates": [
          131.76876355786234,
          2.3518402878491735
        ]
      }
    },
    {
      "type": "Feature",
      "properties": {
        "norad_id": 41549,
        "name": "GSAT0211 (GALILEO 14)",
        "group": "gnss",
        "lat": -53.56793395223595,
        "lon": 156.34811429934544,
        "alt_km": 23228.75495827263,
        "timestamp": "2025-12-09T18:55:17.475323+00:00",
        "meta_object_name": "GSAT0211 (GALILEO 14)",
        "meta_object_id": "2016-030A",
        "meta_epoch": "2025-12-07T13:40:58.264320",
        "meta_mean_motion": 1.70472997,
        "meta_eccentricity": 0.00040128,
        "meta_inclination": 55.154,
        "meta_ra_of_asc_node": 226.9659,
        "meta_arg_of_pericenter": 14.4678,
        "meta_mean_anomaly": 345.6377,
        "meta_ephemeris_type": 0,
        "meta_classification_type": "U",
        "meta_norad_cat_id": 41549,
        "meta_element_set_no": 999,
        "meta_rev_at_epoch": 5940,
        "meta_bstar": 0,
        "meta_mean_motion_dot": 2.3e-07,
        "meta_mean_motion_ddot": 0,
        "tle_line1": "1 41549U 16030A   25341.57011880  .00000023  00000+0  00000+0 0  9991",
        "tle_line2": "2 41549  55.1540 226.9659 0004012  14.4678 345.6377  1.70472997 59400"
      },
      "geometry": {
        "type": "Point",
        "coordinates": [
          156.34811429934544,
          -53.56793395223595
        ]
      }
    },
    {
      "type": "Feature",
      "properties": {
        "norad_id": 41550,
        "name": "GSAT0210 (GALILEO 13)",
        "group": "gnss",
        "lat": 43.218684104634654,
        "lon": 6.060326017769037,
        "alt_km": 23219.111003703536,
        "timestamp": "2025-12-09T18:55:17.475334+00:00",
        "meta_object_name": "GSAT0210 (GALILEO 13)",
        "meta_object_id": "2016-030B",
        "meta_epoch": "2025-12-09T00:00:58.854816",
        "meta_mean_motion": 1.70473614,
        "meta_eccentricity": 0.0001366,
        "meta_inclination": 55.1527,
        "meta_ra_of_asc_node": 226.9246,
        "meta_arg_of_pericenter": 244.5421,
        "meta_mean_anomaly": 115.531,
        "meta_ephemeris_type": 0,
        "meta_classification_type": "U",
        "meta_norad_cat_id": 41550,
        "meta_element_set_no": 999,
        "meta_rev_at_epoch": 5942,
        "meta_bstar": 0,
        "meta_mean_motion_dot": 1.3e-07,
        "meta_mean_motion_ddot": 0,
        "tle_line1": "1 41550U 16030B   25343.00068119  .00000013  00000+0  00000+0 0  9999",
        "tle_line2": "2 41550  55.1527 226.9246 0001366 244.5421 115.5310  1.70473614 59420"
      },
      "geometry": {
        "type": "Point",
        "coordinates": [
          6.060326017769037,
          43.218684104634654
        ]
      }
    },
    {
      "type": "Feature",
      "properties": {
        "norad_id": 41586,
        "name": "BEIDOU-2 G7 (C03)",
        "group": "gnss",
        "lat": 1.261378143437526,
        "lon": 113.07631674554267,
        "alt_km": 35773.63346342772,
        "timestamp": "2025-12-09T18:55:17.475348+00:00",
        "meta_object_name": "BEIDOU-2 G7 (C03)",
        "meta_object_id": "2016-037A",
        "meta_epoch": "2025-12-09T14:05:57.156576",
        "meta_mean_motion": 1.00268504,
        "meta_eccentricity": 0.00043487,
        "meta_inclination": 1.7493,
        "meta_ra_of_asc_node": 67.7013,
        "meta_arg_of_pericenter": 1.2633,
        "meta_mean_anomaly": 331.5617,
        "meta_ephemeris_type": 0,
        "meta_classification_type": "U",
        "meta_norad_cat_id": 41586,
        "meta_element_set_no": 999,
        "meta_rev_at_epoch": 498,
        "meta_bstar": 0,
        "meta_mean_motion_dot": -3.51e-06,
        "meta_mean_motion_ddot": 0,
        "tle_line1": "1 41586U 16037A   25343.58746709 -.00000351  00000+0  00000+0 0  9992",
        "tle_line2": "2 41586   1.7493  67.7013 0004348   1.2633 331.5617  1.00268504  4981"
      },
      "geometry": {
        "type": "Point",
        "coordinates": [
          113.07631674554267,
          1.261378143437526
        ]
      }
    }
  ]
}